[{"OBJECT_NAME":"STARLINK-5285","OBJECT_ID":"2023-010AD","EPOCH":"2026-03-09T21:36:57.639168","MEAN_MOTION":14.98339026,"ECCENTRICITY":0.00018655,"INCLINATION":70.0037,"RA_OF_ASC_NODE":23.8112,"ARG_OF_PERICENTER":262.0351,"MEAN_ANOMALY":98.0597,"EPHEMERIS_TYPE":0,"CLASSIFICATION_TYPE":"U","NORAD_CAT_ID":55296,"ELEMENT_SET_NO":999,"REV_AT_EPOCH":17418,"BSTAR":-5.6290354e-5,"MEAN_MOTION_DOT":-7.64e-6,"MEAN_MOTION_DDOT":0},{"OBJECT_NAME":"CZ-2C DEB","OBJECT_ID":"2026-009C","EPOCH":"2026-03-09T19:20:16.840608","MEAN_MOTION":15.15876918,"ECCENTRICITY":0.01015815,"INCLINATION":97.2202,"RA_OF_ASC_NODE":140.8028,"ARG_OF_PERICENTER":36.3959,"MEAN_ANOMALY":324.4125,"EPHEMERIS_TYPE":0,"CLASSIFICATION_TYPE":"U","NORAD_CAT_ID":67586,"ELEMENT_SET_NO":999,"REV_AT_EPOCH":810,"BSTAR":0.0025681251,"MEAN_MOTION_DOT":0.0005635,"MEAN_MOTION_DDOT":0}]
